H1 CPF  1  DLR 2021 04 03 10  5932 technosat            
H2  1704205 6203    42829 2021 04 03 00 00 00 2021 04 10 00 00 00    60 1 1  0 0 0
H9
10 0 59308  21600.000000  0       4331671.033       3550744.215       4130246.094
10 0 59308  21660.000000  0       4177392.028       3299201.340       4481805.063
10 0 59308  21720.000000  0       4003179.013       3035133.481       4814259.868
10 0 59308  21780.000000  0       3809668.983       2759832.546       5126197.693
10 0 59308  21840.000000  0       3597592.112       2474631.777       5416294.439
10 0 59308  21900.000000  0       3367768.826       2180899.216       5683320.189
10 0 59308  21960.000000  0       3121106.442       1880030.969       5926144.374
10 0 59308  22020.000000  0       2858595.376       1573444.385       6143740.421
10 0 59308  22080.000000  0       2581304.947       1262571.201       6335189.921
10 0 59308  22140.000000  0       2290378.821        948850.763       6499686.261
10 0 59308  22200.000000  0       1987030.132        633723.330       6636537.829
10 0 59308  22260.000000  0       1672536.260        318623.461       6745170.771
10 0 59308  22320.000000  0       1348233.323          4973.466       6825131.274
10 0 59308  22380.000000  0       1015510.369       -305823.084       6876087.367
10 0 59308  22440.000000  0        675803.302       -612387.742       6897830.094
10 0 59308  22500.000000  0        330588.621       -913373.288       6890274.215
10 0 59308  22560.000000  0        -18623.088      -1207469.649       6853458.453
10 0 59308  22620.000000  0       -370293.814      -1493409.641       6787545.196
10 0 59308  22680.000000  0       -722864.949      -1769974.440       6692819.704
10 0 59308  22740.000000  0      -1074764.226      -2035998.775       6569688.778
10 0 59308  22800.000000  0      -1424412.673      -2290375.797       6418678.957
10 0 59308  22860.000000  0      -1770231.628      -2532061.650       6240434.362
10 0 59308  22920.000000  0      -2110649.861      -2760079.768       6035714.103
10 0 59308  22980.000000  0      -2444110.757      -2973524.917       5805389.212
10 0 59308  23040.000000  0      -2769079.563      -3171566.890       5550439.076
10 0 59308  23100.000000  0      -3084050.627      -3353453.802       5271947.315
10 0 59308  23160.000000  0      -3387554.483      -3518514.971       4971097.175
10 0 59308  23220.000000  0      -3678164.764      -3666163.400       4649166.516
10 0 59308  23280.000000  0      -3954504.987      -3795897.874       4307522.432
10 0 59308  23340.000000  0      -4215255.161      -3907304.650       3947615.466
10 0 59308  23400.000000  0      -4459158.151      -4000058.704       3570973.445
10 0 59308  23460.000000  0      -4685025.815      -4073924.575       3179195.049
10 0 59308  23520.000000  0      -4891744.914      -4128756.810       2773942.994
10 0 59308  23580.000000  0      -5078282.695      -4164499.962       2356936.872
10 0 59308  23640.000000  0      -5243692.097      -4181188.117       1929945.705
10 0 59308  23700.000000  0      -5387116.540      -4178943.948       1494780.285
10 0 59308  23760.000000  0      -5507794.332      -4157977.369       1053285.368
10 0 59308  23820.000000  0      -5605062.651      -4118583.765        607331.668
10 0 59308  23880.000000  0      -5678361.030      -4061141.789        158807.750
10 0 59308  23940.000000  0      -5727234.382      -3986110.787       -290388.145
10 0 59308  24000.000000  0      -5751335.536      -3894027.832       -738356.344
10 0 59308  24060.000000  0      -5750427.214      -3785504.363      -1183204.000
10 0 59308  24120.000000  0      -5724383.445      -3661222.443      -1623053.273
10 0 59308  24180.000000  0      -5673190.410      -3521930.713      -2056049.344
10 0 59308  24240.000000  0      -5596946.821      -3368440.095      -2480368.252
10 0 59308  24300.000000  0      -5495863.778      -3201619.246      -2894224.622
10 0 59308  24360.000000  0      -5370264.044      -3022389.743      -3295879.152
10 0 59308  24420.000000  0      -5220580.865      -2831721.083      -3683645.813
10 0 59308  24480.000000  0      -5047356.279      -2630625.520      -4055898.812
10 0 59308  24540.000000  0      -4851238.926      -2420152.752      -4411079.251
10 0 59308  24600.000000  0      -4632981.366      -2201384.522      -4747701.434
10 0 59308  24660.000000  0      -4393436.975      -1975429.139      -5064358.841
10 0 59308  24720.000000  0      -4133556.387      -1743415.922      -5359729.734
10 0 59308  24780.000000  0      -3854383.519      -1506489.617      -5632582.355
10 0 59308  24840.000000  0      -3557051.226      -1265804.842      -5881779.703
10 0 59308  24900.000000  0      -3242776.597      -1022520.566      -6106283.930
10 0 59308  24960.000000  0      -2912855.906       -777794.638      -6305160.318
10 0 59308  25020.000000  0      -2568659.235       -532778.422      -6477580.843
10 0 59308  25080.000000  0      -2211624.781       -288611.532      -6622827.313
10 0 59308  25140.000000  0      -1843252.871        -46416.690      -6740294.014
10 0 59308  25200.000000  0      -1465099.837        192705.222      -6829489.931
10 0 59308  25260.000000  0      -1078771.659        427679.978      -6890040.658
10 0 59308  25320.000000  0       -685917.347        657464.718      -6921689.895
10 0 59308  25380.000000  0       -288222.117        881052.467      -6924300.422
10 0 59308  25440.000000  0        112599.539       1097476.381      -6897854.655
10 0 59308  25500.000000  0        514810.923       1305813.745      -6842454.941
10 0 59308  25560.000000  0        916660.490       1505189.887      -6758323.462
10 0 59308  25620.000000  0       1316389.362       1694781.849      -6645801.470
10 0 59308  25680.000000  0       1712238.763       1873821.749      -6505348.087
10 0 59308  25740.000000  0       2102457.592       2041599.895      -6337538.838
10 0 59308  25800.000000  0       2485310.148       2197467.651      -6143063.595
10 0 59308  25860.000000  0       2859083.714       2340839.974      -5922724.029
10 0 59308  25920.000000  0       3222096.107       2471197.657      -5677430.731
10 0 59308  25980.000000  0       3572703.257       2588089.301      -5408199.937
10 0 59308  26040.000000  0       3909306.786       2691132.991      -5116149.771
10 0 59308  26100.000000  0       4230361.452       2780017.647      -4802495.973
10 0 59308  26160.000000  0       4534382.452       2854504.025      -4468547.219
10 0 59308  26220.000000  0       4819952.549       2914425.355      -4115699.938
10 0 59308  26280.000000  0       5085728.905       2959687.648      -3745432.742
10 0 59308  26340.000000  0       5330449.673       2990269.634      -3359300.472
10 0 59308  26400.000000  0       5552940.303       3006222.380      -2958927.952
10 0 59308  26460.000000  0       5752119.667       3007668.608      -2546003.266
10 0 59308  26520.000000  0       5927005.682       2994801.535      -2122270.567
10 0 59308  26580.000000  0       6076720.430       2967883.331      -1689522.672
10 0 59308  26640.000000  0       6200494.880       2927243.279      -1249593.416
10 0 59308  26700.000000  0       6297673.148       2873275.597       -804349.742
10 0 59308  26760.000000  0       6367716.246       2806436.915       -355683.532
10 0 59308  26820.000000  0       6410205.193       2727243.349         94496.774
10 0 59308  26880.000000  0       6424843.498       2636267.240        544274.558
10 0 59308  26940.000000  0       6411459.112       2534133.704        991733.395
10 0 59308  27000.000000  0       6370005.860       2421516.971       1434965.537
10 0 59308  27060.000000  0       6300564.203       2299136.435       1872080.471
10 0 59308  27120.000000  0       6203341.323       2167752.404       2301213.369
10 0 59308  27180.000000  0       6078670.529       2028161.642       2720533.404
10 0 59308  27240.000000  0       5927010.061       1881192.833       3128251.832
10 0 59308  27300.000000  0       5748941.304       1727701.891       3522629.954
10 0 59308  27360.000000  0       5545166.315       1568567.093       3901986.807
10 0 59308  27420.000000  0       5316504.729       1404684.164       4264706.487
10 0 59308  27480.000000  0       5063890.148       1236961.373       4609245.064
10 0 59308  27540.000000  0       4788366.123       1066314.644       4934137.235
10 0 59308  27600.000000  0       4491081.528        893662.559       5238002.694
10 0 59308  27660.000000  0       4173285.369        719921.460       5519551.993
10 0 59308  27720.000000  0       3836321.136        546000.625       5777591.999
10 0 59308  27780.000000  0       3481620.702        372797.546       6011030.745
10 0 59308  27840.000000  0       3110697.968        201193.408       6218881.815
10 0 59308  27900.000000  0       2725142.211         32048.669       6400268.374
10 0 59308  27960.000000  0       2326611.019       -133801.203       6554426.712
10 0 59308  28020.000000  0       1916822.989       -295549.808       6680709.287
10 0 59308  28080.000000  0       1497550.142       -452423.706       6778587.337
10 0 59308  28140.000000  0       1070610.017       -603686.126       6847652.948
10 0 59308  28200.000000  0        637857.633       -748640.382       6887620.468
10 0 59308  28260.000000  0        201177.402       -886633.039       6898327.565
10 0 59308  28320.000000  0       -237525.195      -1017056.862       6879735.749
10 0 59308  28380.000000  0       -676331.934      -1139353.482       6831930.377
10 0 59308  28440.000000  0      -1113320.287      -1253015.786       6755120.180
10 0 59308  28500.000000  0      -1546571.850      -1357589.984       6649636.257
10 0 59308  28560.000000  0      -1974180.728      -1452677.376       6515930.621
10 0 59308  28620.000000  0      -2394261.870      -1537935.806       6354574.297
10 0 59308  28680.000000  0      -2804959.375      -1613080.838       6166255.069
10 0 59308  28740.000000  0      -3204454.846      -1677886.674       5951774.733
99
